{"generatedAt":"2026-04-08T07:44:35.598829Z","satellites":[{"name":"STARLINK-36499","tle1":"1 67359U 26003AB  26097.29369546  .00038885  00000+0  14141-2 0  9993","tle2":"2 67359  43.0046  65.9466 0001624 267.6820  92.3846 15.27604614 13191"},{"name":"STARLINK-36469","tle1":"1 67360U 26003AC  26097.28983700  .00032210  00000+0  11739-2 0  9994","tle2":"2 67360  43.0080  65.9175 0002049 264.7849  95.2769 15.27608414 13197"},{"name":"STARLINK-35306","tle1":"1 67361U 26003AD  26097.91028662  .00022612  00000+0  82796-3 0  9999","tle2":"2 67361  43.0018  61.9612 0001367 262.1431  97.9265 15.27610223 13294"},{"name":"STARLINK-36428","tle1":"1 67362U 26003AE  26097.90772827  .00026726  00000+0  97690-3 0  9997","tle2":"2 67362  43.0007  61.9445 0000961 279.7442  80.3301 15.27590997 13294"},{"name":"STARLINK-36484","tle1":"1 67404U 26005A   26097.28837324  .00025259  00000+0  92371-3 0  9992","tle2":"2 67404  43.0016  76.1857 0001329 260.1166  99.9535 15.27600511 13077"},{"name":"STARLINK-36452","tle1":"1 67405U 26005B   26097.21784518  .00035668  00000+0  12990-2 0  9995","tle2":"2 67405  43.0004  76.5079 0001362 272.2364  87.8331 15.27591390 13069"},{"name":"STARLINK-36409","tle1":"1 67406U 26005C   26097.64743056  .00019755  00000+0  72546-3 0  9998","tle2":"2 67406  42.9993  74.5826 0000211 246.4411 113.6418 15.27581297 13127"},{"name":"STARLINK-36510","tle1":"1 67407U 26005D   26097.31406626  .00031483  00000+0  11477-2 0  9999","tle2":"2 67407  43.0062  76.3747 0001879 265.6905  94.3732 15.27608906 13076"},{"name":"STARLINK-36509","tle1":"1 67408U 26005E   26097.29864989  .00040645  00000+0  14776-2 0  9992","tle2":"2 67408  43.0022  76.2587 0001236 267.4909  92.5801 15.27597679 13065"},{"name":"STARLINK-36507","tle1":"1 67409U 26005F   26097.91668481  .00019667  00000+0  72203-3 0  9991","tle2":"2 67409  43.0014  73.1589 0000967 247.2023 112.8726 15.27591932 13167"},{"name":"STARLINK-36508","tle1":"1 67410U 26005G   26097.20771282  .00036679  00000+0  13342-2 0  9999","tle2":"2 67410  43.0029  77.3035 0001367 264.9549  95.1147 15.27618257 13059"},{"name":"STARLINK-36503","tle1":"1 67411U 26005H   26097.62943942  .00019599  00000+0  71982-3 0  9997","tle2":"2 67411  43.0020  74.4351 0000531 282.8212  77.2580 15.27581574 13129"},{"name":"STARLINK-36446","tle1":"1 67412U 26005J   26097.30895236  .00038810  00000+0  14123-2 0  9995","tle2":"2 67412  43.0004  76.3395 0000519 289.7573  70.3222 15.27582838 13078"},{"name":"STARLINK-36442","tle1":"1 67413U 26005K   26097.35632702  .00022263  00000+0  81598-3 0  9994","tle2":"2 67413  43.0024  75.8278 0001390 272.4484  87.6208 15.27584638 13089"},{"name":"STARLINK-36506","tle1":"1 67414U 26005L   26097.29607855  .00040208  00000+0  14615-2 0  9993","tle2":"2 67414  43.0027  76.2303 0001509 272.9442  87.1237 15.27606509 13076"},{"name":"STARLINK-36468","tle1":"1 67415U 26005M   26097.66285068  .00026473  00000+0  96808-3 0  9996","tle2":"2 67415  43.0039  74.6936 0000748 259.4878 100.5889 15.27580301 13121"},{"name":"STARLINK-36487","tle1":"1 67416U 26005N   26097.65769538 -.00004671  00000+0 -16025-3 0  9996","tle2":"2 67416  43.0065  74.6618 0001248 301.3905  58.6825 15.27589806 13124"},{"name":"STARLINK-36374","tle1":"1 67417U 26005P   26097.64486027  .00015838  00000+0  58381-3 0  9991","tle2":"2 67417  43.0004  74.5558 0000307 294.9298  65.1522 15.27580666 13129"},{"name":"STARLINK-36455","tle1":"1 67418U 26005Q   26097.31020507  .00011132  00000+0  41339-3 0  9991","tle2":"2 67418  43.0028  76.3417 0001385 270.3153  89.7540 15.27583760 13079"},{"name":"STARLINK-36424","tle1":"1 67419U 26005R   26097.29480291  .00032120  00000+0  11718-2 0  9996","tle2":"2 67419  43.0017  76.2253 0001381 255.2365 104.8334 15.27576740 13078"},{"name":"STARLINK-35564","tle1":"1 67420U 26005S   26097.64229148  .00029929  00000+0  10929-2 0  9995","tle2":"2 67420  42.9983  74.5335 0000400  63.8166 296.2726 15.27574165 13121"},{"name":"STARLINK-36431","tle1":"1 67421U 26005T   26097.20383880  .00027262  00000+0  99592-3 0  9994","tle2":"2 67421  43.0043  77.2735 0001486 284.2130  75.8556 15.27600301 13056"},{"name":"STARLINK-36418","tle1":"1 67422U 26005U   26097.22170054  .00037118  00000+0  13512-2 0  9992","tle2":"2 67422  43.0020  76.5355 0001123 279.5401  80.5324 15.27589237 13069"},{"name":"STARLINK-36465","tle1":"1 67423U 26005V   26097.91541320  .00017779  00000+0  65357-3 0  9993","tle2":"2 67423  43.0032  73.1528 0001110 275.3839  84.6886 15.27602832 13169"},{"name":"STARLINK-36362","tle1":"1 67424U 26005W   26097.31278730  .00012231  00000+0  45306-3 0  9990","tle2":"2 67424  43.0010  76.3676 0000517 258.0569 102.0224 15.27594286 13077"},{"name":"STARLINK-36447","tle1":"1 67425U 26005X   26097.63200658  .00018254  00000+0  67105-3 0  9992","tle2":"2 67425  43.0022  74.4625 0001268 258.7955 101.2754 15.27588635 13120"},{"name":"STARLINK-36146","tle1":"1 67426U 26005Y   26097.20899542  .00034431  00000+0  12546-2 0  9995","tle2":"2 67426  43.0025  77.3046 0001393 257.8718 102.1978 15.27586654 13047"},{"name":"STARLINK-36459","tle1":"1 67427U 26005Z   26097.33205803  .00023147  00000+0  84796-3 0  9990","tle2":"2 67427  43.0048  76.5106 0001309 265.8639  94.2063 15.27582987 13062"},{"name":"STARLINK-36464","tle1":"1 67428U 26005AA  26097.30635816  .00039406  00000+0  14330-2 0  9990","tle2":"2 67428  43.0007  76.3104 0001142 274.6420  85.4302 15.27600474 13065"},{"name":"STARLINK-36513","tle1":"1 67429U 26005AB  26097.29993223  .00042619  00000+0  15484-2 0  9999","tle2":"2 67429  42.9989  76.2568 0001534 273.7026  86.3650 15.27599658 13060"},{"name":"STARLINK-36515","tle1":"1 67430U 26005AC  26097.32177487  .00026804  00000+0  97912-3 0  9996","tle2":"2 67430  43.0026  76.4266 0001066 201.1531 158.9277 15.27610431 13063"},{"name":"STARLINK-36443","tle1":"1 67431U 26005AD  26097.03068012  .00020336  00000+0  74631-3 0  9995","tle2":"2 67431  43.0006  77.6744 0001044 265.5134  94.5598 15.27586786 13038"},{"name":"STARLINK-36460","tle1":"1 67432U 26005AE  26097.01540704  .00041498  00000+0  15080-2 0  9991","tle2":"2 67432  43.0023  78.4243 0001283 264.8786  95.1920 15.27603646 13010"},{"name":"STARLINK-36542","tle1":"1 67445U 26008A   26097.88230481  .00023073  00000+0  84490-3 0  9992","tle2":"2 67445  42.9994  40.6469 0000086 341.7039  18.3810 15.27596897 14033"},{"name":"STARLINK-36539","tle1":"1 67446U 26008B   26097.24257540  .00014128  00000+0  52182-3 0  9992","tle2":"2 67446  43.0037  44.4450 0001057 289.2201  70.8536 15.27587639 13932"},{"name":"STARLINK-36440","tle1":"1 67447U 26008C   26097.57320992  .00028684  00000+0  10473-2 0  9999","tle2":"2 67447  43.0013  41.7508 0001369 274.5065  85.5630 15.27595217 13997"},{"name":"STARLINK-36423","tle1":"1 67448U 26008D   26097.92199065  .00023460  00000+0  85917-3 0  9997","tle2":"2 67448  43.0012  40.0772 0001632 263.5938  96.4727 15.27585578 14046"},{"name":"STARLINK-36519","tle1":"1 67449U 26008E   26097.54508612  .00022175  00000+0  81245-3 0  9990","tle2":"2 67449  43.0031  42.4028 0001826 258.7032 101.3614 15.27598196 13987"},{"name":"STARLINK-36525","tle1":"1 67450U 26008F   26097.93356482  .00017366  00000+0  63845-3 0  9993","tle2":"2 67450  42.9995  40.1627 0001314 267.0333  93.0368 15.27614088 14045"},{"name":"STARLINK-36511","tle1":"1 67451U 26008G   26097.88615144  .00018248  00000+0  67055-3 0  9998","tle2":"2 67451  43.0036  40.6764 0001583 254.4553 105.6124 15.27601907 14038"},{"name":"STARLINK-36524","tle1":"1 67452U 26008H   26097.82846644  .00037360  00000+0  13580-2 0  9993","tle2":"2 67452  43.0048  41.0993 0002456 267.9034  92.1537 15.27635260 14020"},{"name":"STARLINK-36518","tle1":"1 67453U 26008J   26097.87330742  .00024922  00000+0  91184-3 0  9993","tle2":"2 67453  43.0027  40.5520 0000507  21.8630 338.2243 15.27590595 14032"},{"name":"STARLINK-36517","tle1":"1 67454U 26008K   26097.87973465  .00020992  00000+0  77003-3 0  9996","tle2":"2 67454  43.0035  40.6281 0000613 270.9720  89.1062 15.27587190 14030"},{"name":"STARLINK-36516","tle1":"1 67455U 26008L   26097.84632459  .00030167  00000+0  11008-2 0  9996","tle2":"2 67455  43.0010  40.3651 0001051 288.2989  71.7748 15.27593812 14034"},{"name":"STARLINK-36493","tle1":"1 67456U 26008M   26097.85017119  .00028999  00000+0  10598-2 0  9991","tle2":"2 67456  43.0016  40.3922 0001163 254.7435 105.3288 15.27562194 14032"},{"name":"STARLINK-36529","tle1":"1 67457U 26008N   26097.87587853  .00019833  00000+0  72800-3 0  9993","tle2":"2 67457  43.0007  40.5902 0000522 211.3679 148.7141 15.27594080 14038"},{"name":"STARLINK-36528","tle1":"1 67458U 26008P   26097.89757228  .00022675  00000+0  83056-3 0  9994","tle2":"2 67458  43.0048  39.8783 0001224 240.3464 119.7266 15.27596207 14046"},{"name":"STARLINK-36546","tle1":"1 67459U 26008Q   26097.89001403  .00019268  00000+0  70755-3 0  9998","tle2":"2 67459  43.0035  40.6970 0000449 347.3248  12.7592 15.27594837 14037"},{"name":"STARLINK-36523","tle1":"1 67460U 26008R   26097.81820197  .00020561  00000+0  75431-3 0  9995","tle2":"2 67460  42.9997  41.0169 0000189 336.1008  23.9835 15.27592568 14022"},{"name":"STARLINK-36522","tle1":"1 67461U 26008S   26097.53482669  .00014372  00000+0  53036-3 0  9993","tle2":"2 67461  43.0013  42.3263 0001268 251.0544 109.0171 15.27606515 13983"},{"name":"STARLINK-36504","tle1":"1 67462U 26008T   26097.85788834  .00027901  00000+0  10191-2 0  9998","tle2":"2 67462  42.9970  40.4425 0000480 333.0998  26.9829 15.27596164 14034"},{"name":"STARLINK-36505","tle1":"1 67463U 26008U   26097.91941791  .00029103  00000+0  10625-2 0  9997","tle2":"2 67463  43.0018  40.0435 0001577 258.0385 102.0290 15.27591752 14048"},{"name":"STARLINK-36421","tle1":"1 67464U 26008V   26097.83604480  .00035744  00000+0  13019-2 0  9998","tle2":"2 67464  43.0034  40.2874 0001315 274.8506  85.2195 15.27586704 14033"},{"name":"STARLINK-36437","tle1":"1 67465U 26008W   26097.25527358  .00033727  00000+0  12278-2 0  9998","tle2":"2 67465  43.0045  43.6589 0001677 257.0959 102.9705 15.27627621 13949"}]}